PAZ                     
1 43215U 18020A   25148.63393416  .00002305  00000+0  11293-3 0  9999
2 43215  97.4450 156.5313 0001785  88.1947 271.9492 15.19153784402620
GOES 17                 
1 43226U 18022A   25148.56553926 -.00000093  00000+0  00000+0 0  9992
2 43226   0.0199 224.7037 0002659 239.9854 240.8383  1.00271206 26561
LKW-4                   
1 43236U 18025A   25147.97321463  .00013960  00000+0  37211-3 0  9993
2 43236  97.5984 292.9978 0002822 242.0096 118.0863 15.38278635400420
ZHUHAI-1 OVS-02         
1 43440U 18040B   25148.57430615  .00007369  00000+0  35398-3 0  9994
2 43440  97.0728 184.4019 0004947 154.2257 205.9226 15.19096425394214
ZHUHAI-1 OHS-02         
1 43441U 18040C   25148.55041617  .00010372  00000+0  40243-3 0  9996
2 43441  97.0789 188.7607 0013809 161.5597 198.6146 15.26192151394239
GAOFEN-6                
1 43484U 18048A   25148.57223944  .00000700  00000+0  10742-3 0  9993
2 43484  97.8235 219.1824 0012139 344.2918  15.7913 14.76533628376639
LUOJIA-1 01             
1 43485U 18048B   25148.61255411  .00002072  00000+0  24823-3 0  9992
2 43485  97.8429 227.8019 0008038 309.3307  50.7195 14.85154018377098
PAKTES 1A               
1 43529U 18056A   25148.55356418  .00001679  00000+0  15236-3 0  9992
2 43529  98.0770 285.6731 0021328 310.1325  49.8027 14.96598734374346
PRSS 1                  
1 43530U 18056B   25148.55650424  .00000911  00000+0  12410-3 0  9997
2 43530  97.8258 221.2625 0001552 104.5391 255.5994 14.81058700371488
HAIYANG-1C              
1 43609U 18068A   25148.54470980  .00000147  00000+0  68189-4 0  9999
2 43609  98.5623 220.4637 0010970 150.2267 209.9543 14.34163569351958
SSTL S1-4               
1 43618U 18071A   25148.54207785  .00001348  00000+0  12500-3 0  9993
2 43618  97.5569  29.7999 0002346  42.0564 318.0838 14.96039970365425
HAIYANG-2B              
1 43655U 18081A   25148.56250894  .00000003  00000+0  45941-4 0  9999
2 43655  99.3329 158.0372 0000923 164.6837 195.4343 13.79309339331907
CZ-4B R/B               
1 43656U 18081B   25148.40709620  .00000129  00000+0  56557-4 0  9993
2 43656  99.3982  30.3042 0204449 294.8119  63.1920 14.31643860344249
CFOSAT                  
1 43662U 18083A   25148.58353357  .00004055  00000+0  21006-3 0  9995
2 43662  97.3621 159.3990 0002198  88.3245 271.8240 15.16744604364158
TEN-KOH                 
1 43677U 18084G   25148.52613489  .00002120  00000+0  17335-3 0  9992
2 43677  98.0873 320.3045 0005149 313.5848  46.4946 15.00516577358435
DIWATA-2B               
1 43678U 18084H   25148.56773653  .00002634  00000+0  22679-3 0  9994
2 43678  98.1030 324.2336 0007035 338.5444  21.5481 14.98277886358580
STARS-AO                
1 43679U 18084J   25148.56714258  .00005741  00000+0  34726-3 0  9999
2 43679  98.0741 334.8734 0003434  58.4970 301.6594 15.11072439359276
AUTCUBE 2               
1 43681U 18084K   25148.54803049  .00003414  00000+0  23773-3 0  9992
2 43681  98.0837 329.9827 0008262 258.9178 101.1119 15.06165822358957
METOP-C                 
1 43689U 18087A   25148.53761456  .00000134  00000+0  81446-4 0  9995
2 43689  98.7161 209.0214 0001415 148.5493 211.5769 14.21481795340186
ES'HAIL 2               
1 43700U 18090A   25148.59134273  .00000143  00000+0  00000+0 0  9992
2 43700   0.0147 300.3003 0001981 166.5580  18.2110  1.00274026 23827
TIANPING 1B             
1 43714U 18094E   25148.57527793  .00066893  00000+0  57313-3 0  9999
2 43714  97.3230 181.2774 0007221  97.0282 263.1801 15.69188067364325
MOHAMMED VI-B           
1 43717U 18095A   25148.60615396  .00000823  10700-9  11670-3 0  9999
2 43717  97.9537 221.4518 0001336 102.6252 257.5108 14.77087327351416
HYSIS                   
1 43719U 18096A   25148.56985065  .00001257  25000-9  17197-3 0  9991
2 43719  98.0313 212.2013 0000675  89.8262 270.3026 14.78607018350587
COSMOS 2530             
1 43751U 18097A   25148.59655505  .00000005  00000+0 -33152-4 0  9998
2 43751  82.5128 101.0141 0019871 150.5399 209.6805 12.42865937294512
COSMOS 2531             
1 43752U 18097B   25148.54269488  .00000014  00000+0  29746-4 0  9998
2 43752  82.5172 101.9682 0016327 168.4698 191.6759 12.42859121294521
COSMOS 2532             
1 43753U 18097C   25148.56950953  .00000020  00000+0  75507-4 0  9998
2 43753  82.5118 100.9109 0017819 170.7337 189.4075 12.42858277294491
MINXSS-2                
1 43758U 18099A   25148.26092683  .00016695  00000+0  66379-3 0  9990
2 43758  97.5021 214.2593 0012067 191.2992 168.7977 15.25300170355099
SIRION PATHFINDER-2     
1 43759U 18099B   25148.51956348  .00004326  00000+0  27159-3 0  9997
2 43759  97.4772 201.7356 0009896 176.9831 183.1460 15.09762289354494
AISTECHSAT 2            
1 43768U 18099L   25148.07148314  .00005189  00000+0  32080-3 0  9991
2 43768  97.4831 199.6477 0005526 170.1182 190.0157 15.10259178354052
FOX-1CLIFF (AO-95)      
1 43770U 18099N   25148.57876899  .00009658  00000+0  49144-3 0  9999
2 43770  97.4915 206.7983 0009280 249.1470 110.8770 15.16998558354732
2018-099Q               
1 43772U 18099Q   25147.91440791  .00019438  00000+0  66682-3 0  9999
2 43772  97.4721 212.8393 0005307 137.4976 222.6676 15.30191994355067
RANGE-A                 
1 43773U 18099R   25148.39965657  .00004354  00000+0  27926-3 0  9995
2 43773  97.4490 197.1552 0010083 226.8733 133.1653 15.08970446354381
HIBER-2                 
1 43774U 18099S   25148.08419897  .00036712  00000+0  10001-2 0  9990
2 43774  97.4895 216.9237 0007029 167.6681 192.4736 15.37374386355262
MOVE-II                 
1 43780U 18099Y   25148.44845641  .00211385  00000+0  16657-2 0  9991
2 43780  97.4656 223.1886 0006567 192.8648 167.2448 15.70778697355892
VESTA-1                 
1 43781U 18099Z   25148.41565320  .00042112  00000+0  11463-2 0  9992
2 43781  97.4632 210.8756 0004557 176.1018 184.0262 15.37382478355194
SNUSAT-2                
1 43782U 18099AA  25147.72293853  .00006834  00000+0  37507-3 0  9994
2 43782  97.4601 202.8080 0012019 190.3288 169.7698 15.14404261354553
SNUGLITE                
1 43784U 18099AC  25148.08410257  .00009050  00000+0  45690-3 0  9990
2 43784  97.4414 202.6975 0003778 171.0812 189.0489 15.17317619354746
ITASAT                  
1 43786U 18099AE  25148.57407547  .00006639  00000+0  38137-3 0  9992
2 43786  97.4566 203.1877 0013038 244.3062 115.6823 15.12767881354645
KAZSCISAT-1             
1 43787U 18099AF  25148.17735687  .00207163  00000+0  18340-2 0  9996
2 43787  97.4464 218.3141 0005876 187.8421 172.2749 15.67955636355785
EAGLET-I                
1 43790U 18099AJ  25148.41554020  .00004121  00000+0  26467-3 0  9996
2 43790  97.4769 203.0293 0010917 225.0101 135.0244 15.08943570354233
ESEO                    
1 43792U 18099AL  25148.41500377  .00002447  00000+0  18807-3 0  9992
2 43792  97.4479 196.4509 0012498 202.0729 157.9959 15.02562422353990
CSIM-FD                 
1 43793U 18099AM  25147.79063195  .00177245  00000+0  14631-2 0  9994
2 43793  97.4818 224.7361 0007064 184.7397 175.3799 15.69750734355636
THEA                    
1 43796U 18099AQ  25147.90919663  .00010671  00000+0  48019-3 0  9997
2 43796  97.4941 211.9068 0009862 194.9377 165.1569 15.21233167353877
ASTROCAST 0.1           
1 43798U 18099AS  25148.08364643  .00015538  00000+0  56626-3 0  9991
2 43798  97.4845 215.5410 0009063 150.8927 209.2819 15.28236530355265
JY1SAT (JO-97)          
1 43803U 18099AX  25148.41118679  .00011153  00000+0  51227-3 0  9992
2 43803  97.4665 207.5982 0008010 175.1227 185.0087 15.20530261354921
SUOMI-100               
1 43804U 18099AY  25148.14254128  .00008269  00000+0  40766-3 0  9993
2 43804  97.4730 206.6635 0012670 183.3550 176.7601 15.18121984354819
AL-FARABI 2             
1 43805U 18099AZ  25148.60862670  .00025581  00000+0  80798-3 0  9997
2 43805  97.4552 212.6507 0008405 154.4146 205.7513 15.32778153355344
CENTAURI-1              
1 43809U 18099BD  25148.55112959  .00005330  00000+0  32075-3 0  9998
2 43809  97.4761 203.6363 0015037 212.9083 147.1212 15.11154585354314
GLOBAL-2                
1 43812U 18099BG  25148.53584914  .00003707  00000+0  26087-3 0  9996
2 43812  97.4056 195.6335 0007243  46.3480 313.8347 15.05627013353970
BRIO                    
1 43813U 18099BH  25148.26447529  .00221694  00000+0  16436-2 0  9990
2 43813  97.5127 230.6519 0003166 183.6561 176.4679 15.72226193355623
SEAHAWK-1               
1 43820U 18099BQ  25148.56992686  .00008092  00000+0  43679-3 0  9995
2 43820  97.4498 202.8203 0009358 201.1029 158.9818 15.14960853354157
SAUDISAT 5A             
1 43831U 18102A   25148.57836114  .00005412  00000+0  23301-3 0  9999
2 43831  97.3583 212.6827 0012151  58.1152 302.1265 15.22950298357047
SAUDISAT 5B             
1 43833U 18102C   25148.62163496  .00004901  00000+0  20847-3 0  9997
2 43833  97.3664 215.1181 0012920  60.2773 299.9749 15.23401968357155
2018-102D               
1 43834U 18102D   25148.55255844  .00015828  00000+0  41881-3 0  9990
2 43834  97.3807 224.6941 0008334  41.4257 318.7618 15.38439847357682
ISAT                    
1 43879U 18111D   25148.13126795  .00018991  00000+0  66735-3 0  9994
2 43879  97.5972  62.2537 0006798 232.6620 127.4001 15.29406055351795
UWE-4                   
1 43880U 18111E   25148.60400130  .00014408  00000+0  56986-3 0  9992
2 43880  97.5915  61.2978 0009938 249.1736 110.8437 15.25534968351804
D-STAR ONE (SPARROW)    
1 43881U 18111F   25148.18852872  .00020810  00000+0  70465-3 0  9992
2 43881  97.6117  65.1421 0004609 288.2016  71.8723 15.30606155351898
JILIN-1 09              
1 43943U 19005B   25148.59958008  .00005055  00000+0  26731-3 0  9998
2 43943  97.4802 243.0630 0002847  25.0943 335.0428 15.15908612350794
JILIN-1 10              
1 43946U 19005E   25148.58337244  .00005571  00000+0  26190-3 0  9995
2 43946  97.4806 244.1137 0009227 177.6116 182.5165 15.19956667350789
